sat00628
1 00628U 63014F   20045.98878515  .00000003  00000-0  00000+0 0  9994
2 00628  87.3194  63.2012 0045636 274.0361  85.5277  8.63362569789502
